*******************************************************************************
 Revised: April 22, 2021              Neptune                               899
 
 PHYSICAL DATA (update 2021-May-03):
  Mass x10^24 (kg)      = 102.409         Density (g/cm^3)       =  1.638
  Equat. radius (1 bar) = 24766+-15 km    Volume, 10^10 km^3     = 6254     
  Vol. mean radius (km) = 24624+-21       Polar radius (km)      = 24342+-30
  Geometric Albedo      = 0.41            Flattening             =  0.0171
  Sid. rot. period (III)= 16.11+-0.01 hr  Sid. rot. rate (rad/s) =  0.000108338 
  Mean solar day, h     =~16.11 h         
  GM (km^3/s^2)         = 6835099.97      GM 1-sigma (km^3/s^2)  = +-10 
  Equ. grav, ge (m/s^2) = 11.15           Pol. grav, gp (m/s^2)  = 11.41+-0.03
  Visual magnitude V(1,0)= -6.87
  Vis. mag. (opposition)=  +7.84          Obliquity to orbit     = 28.32 deg
  Sidereal orbit period = 164.788501027 y Sidereal orbit period  = 60189 d
  Mean daily motion     = 0.006020076dg/d Mean orbit velocity    =  5.43 km/s 
  Atmos. temp. (1 bar)  =  72+-2 K        Escape speed (1 bar)  =  23.5 km/s     
  Aroche(ice)/Rp        =  2.98           Hill's sphere rad., Rp = 4700
                                 Perihelion  Aphelion    Mean
  Solar Constant (W/m^2)         1.54        1.49        1.51
  Maximum Planetary IR (W/m^2)   0.52        0.52        0.52
  Minimum Planetary IR (W/m^2)   0.52        0.52        0.52
*******************************************************************************


*******************************************************************************
Ephemeris / WWW_USER Tue Feb 24 01:01:14 2026 Pasadena, USA      / Horizons    
*******************************************************************************
Target body name: Neptune (899)                   {source: nep097_merged}
Center body name: Sun (10)                        {source: nep097_merged}
Center-site name: BODYCENTRIC
*******************************************************************************
Start time      : A.D. 2026-Feb-24 00:00:00.0000 UT      
Stop  time      : A.D. 2026-Mar-26 00:00:00.0000 UT      
Step-size       : 1440 minutes
*******************************************************************************
Target pole/equ : IAU_NEPTUNE                     {West-longitude positive}
Target radii    : 24764.0, 24764.0, 24341.0 km    {Equator_a, b, pole_c}       
Center geodetic : 0.0, 0.0, -695700.0             {E-lon(deg),Lat(deg),Alt(km)}
Center cylindric: 0.0, 0.0, 0.0                   {E-lon(deg),Dxy(km),Dz(km)}
Center pole/equ : IAU_SUN                         {East-longitude positive}
Center radii    : 695700.0, 695700.0, 695700.0 km {Equator_a, b, pole_c}       
Target primary  : Sun
Vis. interferer : None
Rel. light bend : Sun                             {source: nep097_merged}
Rel. lght bnd GM: 1.3271E+11 km^3/s^2                                          
Atmos refraction: NO (AIRLESS)
RA format       : HMS
Time format     : CAL 
Calendar mode   : Mixed Julian/Gregorian
EOP file        : eop.260223.p260522                                           
EOP coverage    : DATA-BASED 1962-JAN-20 TO 2026-FEB-23. PREDICTS-> 2026-MAY-21
Units conversion: 1 au= 149597870.700 km, c= 299792.458 km/s, 1 day= 86400.0 s 
Table cut-offs 1: Elevation (-90.0deg=NO ),Airmass     n.a.    , Daylight (NO )
Table cut-offs 2: Solar elongation (  0.0,180.0=NO ),Local Hour Angle( 0.0=NO )
Table cut-offs 3: RA/DEC angular rate (     0.0=NO )                           
******************************************************************************************************************************************************************************
 Date__(UT)__HR:MN     R.A._____(ICRF)_____DEC    APmag   S-brt             delta      deldot     S-O-T /r     S-T-O  Sky_motion  Sky_mot_PA  RelVel-ANG  Lun_Sky_Brt  sky_SNR
******************************************************************************************************************************************************************************
$$SOE
 2026-Feb-24 00:00     00 06 59.50 -00 42 37.2    7.754   9.284  29.8834387662997  -0.0444887    0.0000 /*    0.0010   0.0151374   93.096765   -0.466156         n.a.     n.a.
 2026-Feb-25 00:00     00 07 00.84 -00 42 29.0    7.754   9.284  29.8834131026520  -0.0442359    0.0000 /*    0.0010   0.0151395   93.092040   -0.463444         n.a.     n.a.
 2026-Feb-26 00:00     00 07 02.19 -00 42 20.7    7.754   9.284  29.8833877762902  -0.0434341    0.0000 /*    0.0010   0.0151407   93.094821   -0.455009         n.a.     n.a.
 2026-Feb-27 00:00     00 07 03.53 -00 42 12.4    7.754   9.284  29.8833628753370  -0.0429076    0.0000 /*    0.0010   0.0151398   93.102845   -0.449520         n.a.     n.a.
 2026-Feb-28 00:00     00 07 04.88 -00 42 04.2    7.754   9.284  29.8833380510107  -0.0431967    0.0000 /*    0.0010   0.0151377   93.108398   -0.452613         n.a.     n.a.
 2026-Mar-01 00:00     00 07 06.22 -00 41 55.9    7.754   9.284  29.8833128797365  -0.0439938    0.0000 /*    0.0010   0.0151365   93.106333   -0.460999         n.a.     n.a.
 2026-Mar-02 00:00     00 07 07.57 -00 41 47.6    7.754   9.284  29.8832873029803  -0.0444631    0.0000 /*    0.0010   0.0151375   93.099412   -0.465886         n.a.     n.a.
 2026-Mar-03 00:00     00 07 08.91 -00 41 39.4    7.754   9.284  29.8832616881677  -0.0441085    0.0000 /*    0.0010   0.0151396   93.095438   -0.462109         n.a.     n.a.
 2026-Mar-04 00:00     00 07 10.26 -00 41 31.1    7.754   9.284  29.8832364472050  -0.0432894    0.0000 /*    0.0010   0.0151406   93.099159   -0.453499         n.a.     n.a.
 2026-Mar-05 00:00     00 07 11.60 -00 41 22.8    7.754   9.284  29.8832116084929  -0.0428460    0.0000 /*    0.0010   0.0151394   93.107339   -0.448889         n.a.     n.a.
 2026-Mar-06 00:00     00 07 12.95 -00 41 14.6    7.754   9.284  29.8831867877085  -0.0432297    0.0000 /*    0.0010   0.0151373   93.112112   -0.452972         n.a.     n.a.
 2026-Mar-07 00:00     00 07 14.29 -00 41 06.3    7.754   9.284  29.8831615868774  -0.0440331    0.0000 /*    0.0010   0.0151364   93.109150   -0.461418         n.a.     n.a.
 2026-Mar-08 00:00     00 07 15.64 -00 40 58.0    7.754   9.284  29.8831360076100  -0.0444141    0.0000 /*    0.0010   0.0151376   93.102151   -0.465373         n.a.     n.a.
 2026-Mar-09 00:00     00 07 16.98 -00 40 49.8    7.754   9.284  29.8831104495791  -0.0439690    0.0000 /*    0.0010   0.0151396   93.099003   -0.460648         n.a.     n.a.
 2026-Mar-10 00:00     00 07 18.33 -00 40 41.5    7.754   9.284  29.8830852957010  -0.0431524    0.0000 /*    0.0010   0.0151404   93.103589   -0.452072         n.a.     n.a.
 2026-Mar-11 00:00     00 07 19.67 -00 40 33.2    7.754   9.284  29.8830605142553  -0.0428036    0.0000 /*    0.0010   0.0151390   93.111765   -0.448458         n.a.     n.a.
 2026-Mar-12 00:00     00 07 21.02 -00 40 25.0    7.754   9.284  29.8830356918840  -0.0432764    0.0000 /*    0.0010   0.0151370   93.115660   -0.453474         n.a.     n.a.
 2026-Mar-13 00:00     00 07 22.36 -00 40 16.7    7.754   9.284  29.8830104629020  -0.0440696    0.0000 /*    0.0010   0.0151363   93.111852   -0.461804         n.a.     n.a.
 2026-Mar-14 00:00     00 07 23.71 -00 40 08.4    7.754   9.284  29.8829848888682  -0.0443499    0.0000 /*    0.0010   0.0151377   93.104917   -0.464699         n.a.     n.a.
 2026-Mar-15 00:00     00 07 25.05 -00 40 00.2    7.754   9.284  29.8829593946712  -0.0438166    0.0000 /*    0.0010   0.0151397   93.102683   -0.459051         n.a.     n.a.
 2026-Mar-16 00:00     00 07 26.39 -00 39 51.9    7.754   9.284  29.8829343276077  -0.0430137    0.0000 /*    0.0010   0.0151402   93.108097   -0.450627         n.a.     n.a.
 2026-Mar-17 00:00     00 07 27.74 -00 39 43.6    7.754   9.284  29.8829095965943  -0.0427660    0.0000 /*    0.0010   0.0151386   93.116162   -0.448079         n.a.     n.a.
 2026-Mar-18 00:00     00 07 29.08 -00 39 35.4    7.754   9.284  29.8828847668121  -0.0433238    0.0000 /*    0.0010   0.0151366   93.119121   -0.453983         n.a.     n.a.
 2026-Mar-19 00:00     00 07 30.43 -00 39 27.1    7.754   9.284  29.8828595113831  -0.0440989    0.0000 /*    0.0010   0.0151362   93.114523   -0.462116         n.a.     n.a.
 2026-Mar-20 00:00     00 07 31.77 -00 39 18.8    7.754   9.284  29.8828339507150  -0.0442780    0.0000 /*    0.0010   0.0151379   93.107753   -0.463944         n.a.     n.a.
 2026-Mar-21 00:00     00 07 33.12 -00 39 10.5    7.754   9.284  29.8828085274756  -0.0436664    0.0000 /*    0.0010   0.0151398   93.106458   -0.457479         n.a.     n.a.
 2026-Mar-22 00:00     00 07 34.46 -00 39 02.3    7.754   9.284  29.8827835469804  -0.0428889    0.0000 /*    0.0010   0.0151399   93.112604   -0.449328         n.a.     n.a.
 2026-Mar-23 00:00     00 07 35.81 -00 38 54.0    7.754   9.284  29.8827588600823  -0.0427420    0.0000 /*    0.0010   0.0151382   93.120435   -0.447841         n.a.     n.a.
 2026-Mar-24 00:00     00 07 37.15 -00 38 45.7    7.754   9.284  29.8827340180156  -0.0433692    0.0000 /*    0.0010   0.0151363   93.122441   -0.454469         n.a.     n.a.
 2026-Mar-25 00:00     00 07 38.50 -00 38 37.5    7.754   9.284  29.8827087384741  -0.0441089    0.0000 /*    0.0010   0.0151362   93.117170   -0.462225         n.a.     n.a.
 2026-Mar-26 00:00     00 07 39.84 -00 38 29.2    7.754   9.284  29.8826831988042  -0.0441834    0.0000 /*    0.0010   0.0151380   93.110719   -0.462952         n.a.     n.a.
